QIANFAN-73              
1 63159U 25046A   25212.62199512  .00000170  00000+0  24460-3 0  9994
2 63159  88.9858 333.8417 0016347 146.6225 213.5960 13.50958304 29306
QIANFAN-74              
1 63160U 25046B   25212.53152790  .00000163  00000+0  23372-3 0  9996
2 63160  88.9858 333.7396 0001969 101.7917 258.3455 13.50962715 29359
QIANFAN-75              
1 63161U 25046C   25212.59325590  .00000155  00000+0  22194-3 0  9995
2 63161  88.9859 333.9649 0017446 149.9097 210.3060 13.50959109 29234
QIANFAN-76              
1 63162U 25046D   25212.58896484  .00000186  00000+0  26887-3 0  9997
2 63162  88.9859 333.9465 0015010 149.7283 210.4738 13.50955161 29249
QIANFAN-77              
1 63163U 25046E   25212.58196822  .00000360  00000+0  25306-3 0  9996
2 63163  88.9856 333.0538 0016548 134.8614 225.3910 13.96004603 29736
QIANFAN-78              
1 63164U 25046F   25212.63025238  .00000180  00000+0  25972-3 0  9994
2 63164  88.9857 333.8078 0016319 152.2313 207.9713 13.50958561 29324
QIANFAN-79              
1 63165U 25046G   25212.58490949  .00000179  00000+0  25790-3 0  9990
2 63165  88.9861 333.9147 0016039 150.7211 209.4842 13.50960619 29267
QIANFAN-80              
1 63166U 25046H   25212.60148242  .00000164  00000+0  23505-3 0  9996
2 63166  88.9859 333.6236 0014924 154.2540 205.9357 13.50960948 29421
